ORBITAL FACTORY 2 (OF-2)
1 45113U 19071C   20216.86358441  .00001477  00000-0  56407-4 0  9997
2 45113  51.6442 134.4998 0012409 226.9588 133.0355 15.33489090 28408
M2 PATHFINDER           
1 45727U 20037E   20217.04759778 -.00000103  00000-0 -48326-5 0  9990
2 45727  97.7026  36.0655 0013524 137.0272 223.2045 14.91208087  5115
